$GNRMC,165900.00,A,2100.27089,N,10550.57792,E,0.00,,081026,,,A*50
$GNGGA,165900.00,2100.27089,N,10550.57792,E,1,07,1.4,11.8,M,-22.1,M,,*67
$GNRMC,165901.00,A,2100.26944,N,10550.58008,E,0.00,,081026,,,A*53
$GNGGA,165901.00,2100.26944,N,10550.58008,E,1,07,1.4,13.7,M,-22.1,M,,*69
$GNRMC,165902.00,A,2100.27130,N,10550.58086,E,0.00,,081026,,,A*5C
$GNGGA,165902.00,2100.27130,N,10550.58086,E,1,07,1.4,12.8,M,-22.1,M,,*68
$GNRMC,165903.00,A,2100.26893,N,10550.57949,E,0.00,,081026,,,A*59
$GNGGA,165903.00,2100.26893,N,10550.57949,E,1,07,1.4,13.9,M,-22.1,M,,*6D
$GNRMC,165904.00,A,2100.27275,N,10550.57811,E,0.00,,081026,,,A*51
$GNGGA,165904.00,2100.27275,N,10550.57811,E,1,07,1.4,11.1,M,-22.1,M,,*6F
$GNRMC,165905.00,A,2100.26870,N,10550.58069,E,0.00,,081026,,,A*56
$GNGGA,165905.00,2100.26870,N,10550.58069,E,1,07,1.4,11.2,M,-22.1,M,,*6B
$GNRMC,165906.00,A,2100.27030,N,10550.57963,E,0.00,,081026,,,D*51
$GNGGA,165906.00,2100.27030,N,10550.57963,E,2,11,1.0,12.4,M,-22.1,M,1.0,0000*43
$GNRMC,165907.00,A,2100.27061,N,10550.57977,E,0.00,,081026,,,D*51
$GNGGA,165907.00,2100.27061,N,10550.57977,E,2,11,1.0,11.4,M,-22.1,M,1.0,0000*40
$GNRMC,165908.00,A,2100.27054,N,10550.58034,E,0.00,,081026,,,D*59
$GNGGA,165908.00,2100.27054,N,10550.58034,E,2,11,1.0,12.4,M,-22.1,M,1.0,0000*4B
$GNRMC,165909.00,A,2100.27021,N,10550.58016,E,0.00,,081026,,,D*5A
$GNGGA,165909.00,2100.27021,N,10550.58016,E,2,11,1.0,12.5,M,-22.1,M,1.0,0000*49
$GNRMC,165910.00,A,2100.27003,N,10550.57963,E,0.00,,081026,,,D*56
$GNGGA,165910.00,2100.27003,N,10550.57963,E,2,11,1.0,12.3,M,-22.1,M,1.0,0000*43
$GNRMC,165911.00,A,2100.27034,N,10550.58001,E,0.00,,081026,,,D*51
$GNGGA,165911.00,2100.27034,N,10550.58001,E,2,11,1.0,11.7,M,-22.1,M,1.0,0000*43
$GNRMC,165912.00,A,2100.27048,N,10550.58017,E,0.00,,081026,,,D*5E
$GNGGA,165912.00,2100.27048,N,10550.58017,E,2,11,1.0,11.2,M,-22.1,M,1.0,0000*49
$GNRMC,165913.00,A,2100.26995,N,10550.58030,E,0.00,,081026,,,D*52
$GNGGA,165913.00,2100.26995,N,10550.58030,E,2,11,1.0,11.9,M,-22.1,M,1.0,0000*4E
$GNRMC,165914.00,A,2100.26974,N,10550.58063,E,0.00,,081026,,,D*5C
$GNGGA,165914.00,2100.26974,N,10550.58063,E,2,11,1.0,11.8,M,-22.1,M,1.0,0000*41
$GNRMC,165915.00,A,2100.26945,N,10550.58022,E,0.07,,081026,,,D*5D
$GNGGA,165915.00,2100.26945,N,10550.58022,E,2,11,1.0,12.0,M,-22.1,M,1.0,0000*4C
$GNRMC,165916.00,A,2100.27060,N,10550.58020,E,1.08,0.0,081026,,,D*73
$GNGGA,165916.00,2100.27060,N,10550.58020,E,2,11,1.0,12.5,M,-22.1,M,1.0,0000*47
$GNRMC,165917.00,A,2100.27097,N,10550.57942,E,2.16,0.0,081026,,,D*74
$GNGGA,165917.00,2100.27097,N,10550.57942,E,2,11,1.0,11.6,M,-22.1,M,1.0,0000*4C
$GNRMC,165918.00,A,2100.27178,N,10550.57947,E,3.24,0.0,081026,,,D*7E
$GNGGA,165918.00,2100.27178,N,10550.57947,E,2,11,1.0,13.4,M,-22.1,M,1.0,0000*46
$GNRMC,165919.00,A,2100.27273,N,10550.58094,E,4.32,0.0,081026,,,D*7F
$GNGGA,165919.00,2100.27273,N,10550.58094,E,2,11,1.0,12.9,M,-22.1,M,1.0,0000*4B
$GNRMC,165920.00,A,2100.27369,N,10550.57970,E,5.40,0.0,081026,,,D*77
$GNGGA,165920.00,2100.27369,N,10550.57970,E,2,11,1.0,12.4,M,-22.1,M,1.0,0000*4A
$GNRMC,165921.00,A,2100.27556,N,10550.58025,E,6.48,0.0,081026,,,D*71
$GNGGA,165921.00,2100.27556,N,10550.58025,E,2,11,1.0,12.5,M,-22.1,M,1.0,0000*46
$GNRMC,165922.00,A,2100.27749,N,10550.57983,E,7.56,0.0,081026,,,D*7A
$GNGGA,165922.00,2100.27749,N,10550.57983,E,2,11,1.0,12.4,M,-22.1,M,1.0,0000*42
$GNRMC,165923.00,A,2100.27924,N,10550.57992,E,8.64,0.0,081026,,,D*70
$GNGGA,165923.00,2100.27924,N,10550.57992,E,2,11,1.0,12.3,M,-22.1,M,1.0,0000*41
$GNRMC,165924.00,A,2100.28172,N,10550.57951,E,9.72,0.0,081026,,,D*7A
$GNGGA,165924.00,2100.28172,N,10550.57951,E,2,11,1.0,13.3,M,-22.1,M,1.0,0000*4C
$GNRMC,165925.00,A,2100.28480,N,10550.58025,E,10.80,0.0,081026,,,D*43
$GNGGA,165925.00,2100.28480,N,10550.58025,E,2,11,1.0,12.6,M,-22.1,M,1.0,0000*44
$GNRMC,165926.00,A,2100.28860,N,10550.57964,E,11.88,0.0,081026,,,D*48
$GNGGA,165926.00,2100.28860,N,10550.57964,E,2,11,1.0,12.9,M,-22.1,M,1.0,0000*49
$GNRMC,165927.00,A,2100.29108,N,10550.58020,E,12.96,0.0,081026,,,D*45
$GNGGA,165927.00,2100.29108,N,10550.58020,E,2,11,1.0,12.2,M,-22.1,M,1.0,0000*43
$GNRMC,165928.00,A,2100.29580,N,10550.58014,E,14.04,0.0,081026,,,D*44
$GNGGA,165928.00,2100.29580,N,10550.58014,E,2,11,1.0,12.4,M,-22.1,M,1.0,0000*49
$GNRMC,165929.00,A,2100.29917,N,10550.57973,E,15.12,0.0,081026,,,D*46
$GNGGA,165929.00,2100.29917,N,10550.57973,E,2,11,1.0,11.9,M,-22.1,M,1.0,0000*43
$GNRMC,165930.00,A,2100.30323,N,10550.58036,E,16.20,0.0,081026,,,D*4E
$GNGGA,165930.00,2100.30323,N,10550.58036,E,2,11,1.0,13.2,M,-22.1,M,1.0,0000*40
$GNRMC,165931.00,A,2100.30848,N,10550.58007,E,17.28,0.0,081026,,,D*42
$GNGGA,165931.00,2100.30848,N,10550.58007,E,2,11,1.0,12.4,M,-22.1,M,1.0,0000*42
$GNRMC,165932.00,A,2100.31348,N,10550.57980,E,18.36,0.0,081026,,,D*42
$GNGGA,165932.00,2100.31348,N,10550.57980,E,2,11,1.0,12.1,M,-22.1,M,1.0,0000*47
$GNRMC,165933.00,A,2100.31819,N,10550.57952,E,19.44,0.0,081026,,,D*47
$GNGGA,165933.00,2100.31819,N,10550.57952,E,2,11,1.0,12.7,M,-22.1,M,1.0,0000*40
$GNRMC,165934.00,A,2100.32390,N,10550.57985,E,20.52,0.0,081026,,,D*4E
$GNGGA,165934.00,2100.32390,N,10550.57985,E,2,11,1.0,12.6,M,-22.1,M,1.0,0000*45
$GNRMC,165935.00,A,2100.32982,N,10550.57998,E,21.53,0.0,081026,,,F*48
$GNGGA,165935.00,2100.32982,N,10550.57998,E,5,16,0.8,12.2,M,-22.1,M,1.0,0000*4C
$GNRMC,165936.00,A,2100.33577,N,10550.58024,E,21.60,0.0,081026,,,F*4D
$GNGGA,165936.00,2100.33577,N,10550.58024,E,5,16,0.8,12.3,M,-22.1,M,1.0,0000*48
$GNRMC,165937.00,A,2100.34208,N,10550.57997,E,21.60,0.0,081026,,,F*4A
$GNGGA,165937.00,2100.34208,N,10550.57997,E,5,16,0.8,12.2,M,-22.1,M,1.0,0000*4E
$GNRMC,165938.00,A,2100.34777,N,10550.58004,E,21.60,0.0,081026,,,F*44
$GNGGA,165938.00,2100.34777,N,10550.58004,E,5,16,0.8,12.2,M,-22.1,M,1.0,0000*40
$GNRMC,165939.00,A,2100.35353,N,10550.58014,E,21.60,0.0,081026,,,F*47
$GNGGA,165939.00,2100.35353,N,10550.58014,E,5,16,0.8,12.3,M,-22.1,M,1.0,0000*42
$GNRMC,165940.00,A,2100.35986,N,10550.57994,E,21.60,0.0,081026,,,F*45
$GNGGA,165940.00,2100.35986,N,10550.57994,E,5,16,0.8,12.6,M,-22.1,M,1.0,0000*45
$GNRMC,165941.00,A,2100.36589,N,10550.58000,E,21.60,0.0,081026,,,F*4F
$GNGGA,165941.00,2100.36589,N,10550.58000,E,5,16,0.8,12.3,M,-22.1,M,1.0,0000*4A
$GNRMC,165942.00,A,2100.37188,N,10550.58002,E,21.60,0.0,081026,,,F*4A
$GNGGA,165942.00,2100.37188,N,10550.58002,E,5,16,0.8,12.4,M,-22.1,M,1.0,0000*48
$GNRMC,165943.00,A,2100.37791,N,10550.58004,E,21.60,359.4,081026,,,F*48
$GNGGA,165943.00,2100.37791,N,10550.58004,E,5,16,0.8,12.8,M,-22.1,M,1.0,0000*4D
$GNRMC,165944.00,A,2100.38387,N,10550.57957,E,21.60,355.6,081026,,,F*4D
$GNGGA,165944.00,2100.38387,N,10550.57957,E,5,16,0.8,12.3,M,-22.1,M,1.0,0000*4D
$GNRMC,165945.00,A,2100.38956,N,10550.57899,E,21.60,346.6,081026,,,F*4B
$GNGGA,165945.00,2100.38956,N,10550.57899,E,5,16,0.8,12.0,M,-22.1,M,1.0,0000*4A
$GNRMC,165946.00,A,2100.39500,N,10550.57674,E,21.60,332.4,081026,,,F*4A
$GNGGA,165946.00,2100.39500,N,10550.57674,E,5,16,0.8,12.3,M,-22.1,M,1.0,0000*49
$GNRMC,165947.00,A,2100.40003,N,10550.57269,E,21.60,315.0,081026,,,F*4A
$GNGGA,165947.00,2100.40003,N,10550.57269,E,5,16,0.8,12.3,M,-22.1,M,1.0,0000*48
$GNRMC,165948.00,A,2100.40364,N,10550.56767,E,21.60,297.6,081026,,,R*54
$GNGGA,165948.00,2100.40364,N,10550.56767,E,4,18,0.6,12.4,M,-22.1,M,1.0,0000*49
$GNRMC,165949.00,A,2100.40569,N,10550.56165,E,21.60,283.4,081026,,,R*5D
$GNGGA,165949.00,2100.40569,N,10550.56165,E,4,18,0.6,12.3,M,-22.1,M,1.0,0000*40
$GNRMC,165950.00,A,2100.40658,N,10550.55534,E,21.60,274.4,081026,,,R*5F
$GNGGA,165950.00,2100.40658,N,10550.55534,E,4,18,0.6,12.2,M,-22.1,M,1.0,0000*4B
$GNRMC,165951.00,A,2100.40678,N,10550.54892,E,21.60,270.6,081026,,,R*5A
$GNGGA,165951.00,2100.40678,N,10550.54892,E,4,18,0.6,12.3,M,-22.1,M,1.0,0000*49
$GNRMC,165952.00,A,2100.40678,N,10550.54252,E,21.60,270.0,081026,,,R*59
$GNGGA,165952.00,2100.40678,N,10550.54252,E,4,18,0.6,12.4,M,-22.1,M,1.0,0000*4B
$GNRMC,165953.00,A,2100.40679,N,10550.53610,E,21.60,270.0,081026,,,R*5C
$GNGGA,165953.00,2100.40679,N,10550.53610,E,4,18,0.6,12.3,M,-22.1,M,1.0,0000*49
$GNRMC,165954.00,A,2100.40678,N,10550.52970,E,21.60,270.0,081026,,,R*52
$GNGGA,165954.00,2100.40678,N,10550.52970,E,4,18,0.6,12.4,M,-22.1,M,1.0,0000*40
$GNRMC,165955.00,A,2100.40680,N,10550.52324,E,21.60,270.0,081026,,,R*5F
$GNGGA,165955.00,2100.40680,N,10550.52324,E,4,18,0.6,12.2,M,-22.1,M,1.0,0000*4B
$GNRMC,165956.00,A,2100.40680,N,10550.51685,E,21.60,270.0,081026,,,R*51
$GNGGA,165956.00,2100.40680,N,10550.51685,E,4,18,0.6,12.3,M,-22.1,M,1.0,0000*44
$GNRMC,165957.00,A,2100.40680,N,10550.51045,E,21.60,270.0,081026,,,R*5A
$GNGGA,165957.00,2100.40680,N,10550.51045,E,4,18,0.6,12.3,M,-22.1,M,1.0,0000*4F
$GNRMC,165958.00,A,2100.40679,N,10550.50401,E,21.60,270.0,081026,,,R*56
$GNGGA,165958.00,2100.40679,N,10550.50401,E,4,18,0.6,12.2,M,-22.1,M,1.0,0000*42
$GNRMC,165959.00,A,2100.40679,N,10550.49760,E,21.60,270.0,081026,,,R*5B
$GNGGA,165959.00,2100.40679,N,10550.49760,E,4,18,0.6,12.4,M,-22.1,M,1.0,0000*49
$GNRMC,170000.00,A,2100.40680,N,10550.49118,E,21.64,270.0,081026,,,R*51
$GNGGA,170000.00,2100.40680,N,10550.49118,E,4,18,0.6,12.4,M,-22.1,M,1.0,0000*47
$GNRMC,170001.00,A,2100.40677,N,10550.48467,E,22.27,270.0,081026,,,R*50
$GNGGA,170001.00,2100.40677,N,10550.48467,E,4,18,0.6,12.4,M,-22.1,M,1.0,0000*42
$GNRMC,170002.00,A,2100.40680,N,10550.47795,E,22.95,270.0,081026,,,R*53
$GNGGA,170002.00,2100.40680,N,10550.47795,E,4,18,0.6,12.3,M,-22.1,M,1.0,0000*4F
$GNRMC,170003.00,A,2100.40678,N,10550.47107,E,23.62,270.0,081026,,,R*51
$GNGGA,170003.00,2100.40678,N,10550.47107,E,4,18,0.6,12.3,M,-22.1,M,1.0,0000*44
$GNRMC,170004.00,A,2100.40681,N,10550.46393,E,24.30,270.0,081026,,,R*5E
$GNGGA,170004.00,2100.40681,N,10550.46393,E,4,18,0.6,12.3,M,-22.1,M,1.0,0000*4B
$GNRMC,170005.00,A,2100.40680,N,10550.45662,E,24.97,270.0,081026,,,R*5B
$GNGGA,170005.00,2100.40680,N,10550.45662,E,4,18,0.6,12.3,M,-22.1,M,1.0,0000*43
$GNRMC,170006.00,A,2100.40678,N,10550.44909,E,25.65,270.0,081026,,,R*50
$GNGGA,170006.00,2100.40678,N,10550.44909,E,4,18,0.6,12.2,M,-22.1,M,1.0,0000*45
$GNRMC,170007.00,A,2100.40680,N,10550.44136,E,26.32,270.0,081026,,,R*53
$GNGGA,170007.00,2100.40680,N,10550.44136,E,4,18,0.6,12.3,M,-22.1,M,1.0,0000*46
$GNRMC,170008.00,A,2100.40679,N,10550.43346,E,27.00,270.0,081026,,,R*58
$GNGGA,170008.00,2100.40679,N,10550.43346,E,4,18,0.6,12.3,M,-22.1,M,1.0,0000*4D
$GNRMC,170009.00,A,2100.40680,N,10550.42531,E,27.67,270.0,081026,,,R*59
$GNGGA,170009.00,2100.40680,N,10550.42531,E,4,18,0.6,12.2,M,-22.1,M,1.0,0000*4C
$GNRMC,170010.00,A,2100.40680,N,10550.41701,E,28.35,270.0,081026,,,R*5B
$GNGGA,170010.00,2100.40680,N,10550.41701,E,4,18,0.6,12.3,M,-22.1,M,1.0,0000*47
$GNRMC,170011.00,A,2100.40680,N,10550.40850,E,29.02,270.0,081026,,,R*55
$GNGGA,170011.00,2100.40680,N,10550.40850,E,4,18,0.6,12.2,M,-22.1,M,1.0,0000*4D
$GNRMC,170012.00,A,2100.40679,N,10550.39978,E,29.70,270.0,081026,,,R*50
$GNGGA,170012.00,2100.40679,N,10550.39978,E,4,18,0.6,12.2,M,-22.1,M,1.0,0000*4D
$GNRMC,170013.00,A,2100.40681,N,10550.39085,E,30.37,270.0,081026,,,R*56
$GNGGA,170013.00,2100.40681,N,10550.39085,E,4,18,0.6,12.3,M,-22.1,M,1.0,0000*41
$GNRMC,170014.00,A,2100.40679,N,10550.38176,E,31.05,270.0,081026,,,R*5A
$GNGGA,170014.00,2100.40679,N,10550.38176,E,4,18,0.6,12.2,M,-22.1,M,1.0,0000*4C
$GNRMC,170015.00,A,2100.40680,N,10550.37242,E,31.72,270.0,081026,,,R*56
$GNGGA,170015.00,2100.40680,N,10550.37242,E,4,18,0.6,12.3,M,-22.1,M,1.0,0000*41
$GNRMC,170016.00,A,2100.40680,N,10550.36289,E,32.40,270.0,081026,,,R*51
$GNGGA,170016.00,2100.40680,N,10550.36289,E,4,18,0.6,12.3,M,-22.1,M,1.0,0000*44
$GNRMC,170017.00,A,2100.40679,N,10550.35316,E,33.07,270.0,081026,,,R*50
$GNGGA,170017.00,2100.40679,N,10550.35316,E,4,18,0.6,12.3,M,-22.1,M,1.0,0000*47
$GNRMC,170018.00,A,2100.40677,N,10550.34325,E,33.75,270.0,081026,,,R*55
$GNGGA,170018.00,2100.40677,N,10550.34325,E,4,18,0.6,12.2,M,-22.1,M,1.0,0000*46
$GNRMC,170019.00,A,2100.40679,N,10550.33313,E,34.42,270.0,081026,,,R*5B
$GNGGA,170019.00,2100.40679,N,10550.33313,E,4,18,0.6,12.3,M,-22.1,M,1.0,0000*4A
$GNRMC,170020.00,A,2100.40679,N,10550.32281,E,34.97,270.0,081026,,,R*52
$GNGGA,170020.00,2100.40679,N,10550.32281,E,4,18,0.6,12.2,M,-22.1,M,1.0,0000*4A
$GNRMC,170021.00,A,2100.40678,N,10550.31259,E,33.75,270.0,081026,,,R*5F
$GNGGA,170021.00,2100.40678,N,10550.31259,E,4,18,0.6,12.2,M,-22.1,M,1.0,0000*4C
$GNRMC,170022.00,A,2100.40680,N,10550.30275,E,32.40,270.0,081026,,,R*53
$GNGGA,170022.00,2100.40680,N,10550.30275,E,4,18,0.6,12.3,M,-22.1,M,1.0,0000*46
$GNRMC,170023.00,A,2100.40678,N,10550.29332,E,31.05,270.0,081026,,,R*5D
$GNGGA,170023.00,2100.40678,N,10550.29332,E,4,18,0.6,12.3,M,-22.1,M,1.0,0000*4A
$GNRMC,170024.00,A,2100.40680,N,10550.28430,E,29.70,270.0,081026,,,R*52
$GNGGA,170024.00,2100.40680,N,10550.28430,E,4,18,0.6,12.3,M,-22.1,M,1.0,0000*4E
$GNRMC,170025.00,A,2100.40679,N,10550.27569,E,28.35,270.0,081026,,,R*57
$GNGGA,170025.00,2100.40679,N,10550.27569,E,4,18,0.6,12.2,M,-22.1,M,1.0,0000*4A
$GNRMC,170026.00,A,2100.40678,N,10550.26748,E,27.00,270.0,081026,,,R*5C
$GNGGA,170026.00,2100.40678,N,10550.26748,E,4,18,0.6,12.3,M,-22.1,M,1.0,0000*49
$GNRMC,170027.00,A,2100.40678,N,10550.25965,E,25.65,270.0,081026,,,R*5E
$GNGGA,170027.00,2100.40678,N,10550.25965,E,4,18,0.6,12.2,M,-22.1,M,1.0,0000*4B
$GNRMC,170028.00,A,2100.40679,N,10550.25224,E,24.30,270.0,081026,,,R*5F
$GNGGA,170028.00,2100.40679,N,10550.25224,E,4,18,0.6,12.3,M,-22.1,M,1.0,0000*4A
$GNRMC,170029.00,A,2100.40679,N,10550.24523,E,22.95,270.0,081026,,,R*56
$GNGGA,170029.00,2100.40679,N,10550.24523,E,4,18,0.6,12.2,M,-22.1,M,1.0,0000*4B
$GNRMC,170030.00,A,2100.40680,N,10550.23860,E,21.60,270.0,081026,,,R*5C
$GNGGA,170030.00,2100.40680,N,10550.23860,E,4,18,0.6,12.3,M,-22.1,M,1.0,0000*49
$GNRMC,170031.00,A,2100.40679,N,10550.23240,E,20.25,270.0,081026,,,R*53
$GNGGA,170031.00,2100.40679,N,10550.23240,E,4,18,0.6,12.4,M,-22.1,M,1.0,0000*41
$GNRMC,170032.00,A,2100.40682,N,10550.22659,E,18.96,271.1,081026,,,R*5A
$GNGGA,170032.00,2100.40682,N,10550.22659,E,4,18,0.6,12.3,M,-22.1,M,1.0,0000*4C
$GNRMC,170033.00,A,2100.40717,N,10550.22104,E,18.56,278.2,081026,,,R*5F
$GNGGA,170033.00,2100.40717,N,10550.22104,E,4,18,0.6,12.3,M,-22.1,M,1.0,0000*4F
$GNRMC,170034.00,V,,,,,,,081026,,,N*6F
$GNGGA,170034.00,,,,,0,00,,,,,,,*57
$GNRMC,170035.00,V,,,,,,,081026,,,N*6E
$GNGGA,170035.00,,,,,0,00,,,,,,,*56
$GNRMC,170036.00,V,,,,,,,081026,,,N*6D
$GNGGA,170036.00,,,,,0,00,,,,,,,*55
$GNRMC,170037.00,A,2100.41981,N,10550.20698,E,17.21,351.8,081026,,,F*40
$GNGGA,170037.00,2100.41981,N,10550.20698,E,5,16,0.8,11.9,M,-22.1,M,1.0,0000*43
$GNRMC,170038.00,A,2100.42460,N,10550.20689,E,16.87,358.9,081026,,,F*4B
$GNGGA,170038.00,2100.42460,N,10550.20689,E,5,16,0.8,12.2,M,-22.1,M,1.0,0000*45
$GNRMC,170039.00,A,2100.42920,N,10550.20664,E,16.54,0.0,081026,,,F*49
$GNGGA,170039.00,2100.42920,N,10550.20664,E,5,16,0.8,12.2,M,-22.1,M,1.0,0000*4E
$GNRMC,170040.00,A,2100.43383,N,10550.20685,E,16.22,0.0,081026,,,F*4B
$GNGGA,170040.00,2100.43383,N,10550.20685,E,5,16,0.8,12.7,M,-22.1,M,1.0,0000*48
$GNRMC,170041.00,A,2100.43829,N,10550.20659,E,16.20,0.0,081026,,,F*42
$GNGGA,170041.00,2100.43829,N,10550.20659,E,5,16,0.8,12.4,M,-22.1,M,1.0,0000*40
$GNRMC,170042.00,A,2100.44261,N,10550.20676,E,16.20,0.0,081026,,,F*4D
$GNGGA,170042.00,2100.44261,N,10550.20676,E,5,16,0.8,12.4,M,-22.1,M,1.0,0000*4F
$GNRMC,170043.00,A,2100.44727,N,10550.20685,E,16.20,0.0,081026,,,F*47
$GNGGA,170043.00,2100.44727,N,10550.20685,E,5,16,0.8,12.7,M,-22.1,M,1.0,0000*46
$GNRMC,170044.00,A,2100.45183,N,10550.20654,E,16.20,0.0,081026,,,F*45
$GNGGA,170044.00,2100.45183,N,10550.20654,E,5,16,0.8,12.6,M,-22.1,M,1.0,0000*45
$GNRMC,170045.00,A,2100.45649,N,10550.20658,E,16.20,0.0,081026,,,F*49
$GNGGA,170045.00,2100.45649,N,10550.20658,E,5,16,0.8,12.3,M,-22.1,M,1.0,0000*4C
$GNRMC,170046.00,A,2100.46082,N,10550.20667,E,16.20,0.0,081026,,,R*50
$GNGGA,170046.00,2100.46082,N,10550.20667,E,4,18,0.6,12.4,M,-22.1,M,1.0,0000*47
$GNRMC,170047.00,A,2100.46528,N,10550.20668,E,16.20,0.0,081026,,,R*5B
$GNGGA,170047.00,2100.46528,N,10550.20668,E,4,18,0.6,12.3,M,-22.1,M,1.0,0000*4B
$GNRMC,170048.00,A,2100.46977,N,10550.20669,E,16.20,0.0,081026,,,R*53
$GNGGA,170048.00,2100.46977,N,10550.20669,E,4,18,0.6,12.3,M,-22.1,M,1.0,0000*43
$GNRMC,170049.00,A,2100.47430,N,10550.20670,E,16.20,0.0,081026,,,R*55
$GNGGA,170049.00,2100.47430,N,10550.20670,E,4,18,0.6,12.2,M,-22.1,M,1.0,0000*44
$GNRMC,170050.00,A,2100.47879,N,10550.20671,E,16.20,0.0,081026,,,R*5D
$GNGGA,170050.00,2100.47879,N,10550.20671,E,4,18,0.6,12.3,M,-22.1,M,1.0,0000*4D
$GNRMC,170051.00,A,2100.48325,N,10550.20668,E,16.20,0.0,081026,,,R*59
$GNGGA,170051.00,2100.48325,N,10550.20668,E,4,18,0.6,12.2,M,-22.1,M,1.0,0000*48
$GNRMC,170052.00,A,2100.48776,N,10550.20670,E,16.20,0.0,081026,,,R*51
$GNGGA,170052.00,2100.48776,N,10550.20670,E,4,18,0.6,12.4,M,-22.1,M,1.0,0000*46
$GNRMC,170053.00,A,2100.49224,N,10550.20668,E,15.90,0.0,081026,,,R*52
$GNGGA,170053.00,2100.49224,N,10550.20668,E,4,18,0.6,12.3,M,-22.1,M,1.0,0000*4A
$GNRMC,170054.00,A,2100.49518,N,10550.20667,E,3.99,0.0,081026,,,R*6C
$GNGGA,170054.00,2100.49518,N,10550.20667,E,4,18,0.6,12.4,M,-22.1,M,1.0,0000*4D
$GNRMC,170055.00,A,2100.49538,N,10550.20669,E,0.00,,081026,,,R*4C
$GNGGA,170055.00,2100.49538,N,10550.20669,E,4,18,0.6,12.4,M,-22.1,M,1.0,0000*40
$GNRMC,170056.00,A,2100.49536,N,10550.20668,E,0.00,,081026,,,R*40
$GNGGA,170056.00,2100.49536,N,10550.20668,E,4,18,0.6,12.3,M,-22.1,M,1.0,0000*4B
$GNRMC,170057.00,A,2100.49539,N,10550.20669,E,0.00,,081026,,,R*4F
$GNGGA,170057.00,2100.49539,N,10550.20669,E,4,18,0.6,12.3,M,-22.1,M,1.0,0000*44
$GNRMC,170058.00,A,2100.49538,N,10550.20670,E,0.00,,081026,,,R*49
$GNGGA,170058.00,2100.49538,N,10550.20670,E,4,18,0.6,12.2,M,-22.1,M,1.0,0000*43
$GNRMC,170059.00,A,2100.49539,N,10550.20667,E,0.00,,081026,,,R*4F
$GNGGA,170059.00,2100.49539,N,10550.20667,E,4,18,0.6,12.3,M,-22.1,M,1.0,0000*44
$GNRMC,170100.00,A,2100.49537,N,10550.20666,E,0.00,,081026,,,R*4D
$GNGGA,170100.00,2100.49537,N,10550.20666,E,4,18,0.6,12.3,M,-22.1,M,1.0,0000*46
$GNRMC,170101.00,A,2100.49538,N,10550.20670,E,0.00,,081026,,,R*44
$GNGGA,170101.00,2100.49538,N,10550.20670,E,4,18,0.6,12.4,M,-22.1,M,1.0,0000*48
$GNRMC,170102.00,A,2100.49538,N,10550.20670,E,0.00,,081026,,,R*47
$GNGGA,170102.00,2100.49538,N,10550.20670,E,4,18,0.6,12.3,M,-22.1,M,1.0,0000*4C
$GNRMC,170103.00,A,2100.49538,N,10550.20670,E,0.00,,081026,,,R*46
$GNGGA,170103.00,2100.49538,N,10550.20670,E,4,18,0.6,12.2,M,-22.1,M,1.0,0000*4C
$GNRMC,170104.00,A,2100.49539,N,10550.20669,E,0.00,,081026,,,R*48
$GNGGA,170104.00,2100.49539,N,10550.20669,E,4,18,0.6,12.3,M,-22.1,M,1.0,0000*43
$GNRMC,170105.00,A,2100.49539,N,10550.20667,E,0.00,,081026,,,R*47
$GNGGA,170105.00,2100.49539,N,10550.20667,E,4,18,0.6,12.2,M,-22.1,M,1.0,0000*4D
$GNRMC,170106.00,A,2100.49538,N,10550.20671,E,0.00,,081026,,,R*42
$GNGGA,170106.00,2100.49538,N,10550.20671,E,4,18,0.6,12.3,M,-22.1,M,1.0,0000*49
$GNRMC,170107.00,A,2100.49539,N,10550.20668,E,0.00,,081026,,,R*4A
$GNGGA,170107.00,2100.49539,N,10550.20668,E,4,18,0.6,12.3,M,-22.1,M,1.0,0000*41
$GNRMC,170108.00,A,2100.49538,N,10550.20670,E,0.00,,081026,,,R*4D
$GNGGA,170108.00,2100.49538,N,10550.20670,E,4,18,0.6,12.3,M,-22.1,M,1.0,0000*46
$GNRMC,170109.00,A,2100.49538,N,10550.20669,E,0.00,,081026,,,R*44
$GNGGA,170109.00,2100.49538,N,10550.20669,E,4,18,0.6,12.3,M,-22.1,M,1.0,0000*4F
$GNRMC,170110.00,A,2100.49539,N,10550.20668,E,0.00,,081026,,,R*4C
$GNGGA,170110.00,2100.49539,N,10550.20668,E,4,18,0.6,12.3,M,-22.1,M,1.0,0000*47
$GNRMC,170111.00,A,2100.49538,N,10550.20669,E,0.00,,081026,,,R*4D
$GNGGA,170111.00,2100.49538,N,10550.20669,E,4,18,0.6,12.3,M,-22.1,M,1.0,0000*46
$GNRMC,170112.00,A,2100.49538,N,10550.20668,E,0.00,,081026,,,R*4F
$GNGGA,170112.00,2100.49538,N,10550.20668,E,4,18,0.6,12.3,M,-22.1,M,1.0,0000*44
$GNRMC,170113.00,A,2100.49538,N,10550.20671,E,0.00,,081026,,,R*46
$GNGGA,170113.00,2100.49538,N,10550.20671,E,4,18,0.6,12.2,M,-22.1,M,1.0,0000*4C
$GNRMC,170114.00,A,2100.49539,N,10550.20672,E,0.00,,081026,,,R*43
$GNGGA,170114.00,2100.49539,N,10550.20672,E,4,18,0.6,12.3,M,-22.1,M,1.0,0000*48
$GNRMC,170115.00,A,2100.49539,N,10550.20669,E,0.00,,081026,,,R*48
$GNGGA,170115.00,2100.49539,N,10550.20669,E,4,18,0.6,12.4,M,-22.1,M,1.0,0000*44
$GNRMC,170116.00,A,2100.49537,N,10550.20668,E,0.07,,081026,,,R*43
$GNGGA,170116.00,2100.49537,N,10550.20668,E,4,18,0.6,12.3,M,-22.1,M,1.0,0000*4F
$GNRMC,170117.00,A,2100.49556,N,10550.20669,E,1.21,0.0,081026,,,R*6F
$GNGGA,170117.00,2100.49556,N,10550.20669,E,4,18,0.6,12.3,M,-22.1,M,1.0,0000*48
$GNRMC,170118.00,A,2100.49605,N,10550.20669,E,2.43,0.0,081026,,,R*62
$GNGGA,170118.00,2100.49605,N,10550.20669,E,4,18,0.6,12.3,M,-22.1,M,1.0,0000*42
$GNRMC,170119.00,A,2100.49690,N,10550.20667,E,3.64,0.0,081026,,,R*65
$GNGGA,170119.00,2100.49690,N,10550.20667,E,4,18,0.6,12.3,M,-22.1,M,1.0,0000*41
$GNRMC,170120.00,A,2100.49809,N,10550.20669,E,4.86,0.0,081026,,,R*64
$GNGGA,170120.00,2100.49809,N,10550.20669,E,4,18,0.6,12.3,M,-22.1,M,1.0,0000*4B
$GNRMC,170121.00,A,2100.49959,N,10550.20669,E,6.07,0.0,081026,,,R*6A
$GNGGA,170121.00,2100.49959,N,10550.20669,E,4,18,0.6,12.3,M,-22.1,M,1.0,0000*4E
$GNRMC,170122.00,A,2100.50144,N,10550.20670,E,7.29,0.0,081026,,,R*60
$GNGGA,170122.00,2100.50144,N,10550.20670,E,4,18,0.6,12.2,M,-22.1,M,1.0,0000*48
$GNRMC,170123.00,A,2100.50363,N,10550.20668,E,8.50,0.0,081026,,,R*6E
$GNGGA,170123.00,2100.50363,N,10550.20668,E,4,18,0.6,12.3,M,-22.1,M,1.0,0000*46
$GNRMC,170124.00,A,2100.50614,N,10550.20668,E,9.72,0.0,081026,,,R*6D
$GNGGA,170124.00,2100.50614,N,10550.20668,E,4,18,0.6,12.3,M,-22.1,M,1.0,0000*44
$GNRMC,170125.00,A,2100.50904,N,10550.20669,E,10.93,0.0,081026,,,R*54
$GNGGA,170125.00,2100.50904,N,10550.20669,E,4,18,0.6,12.2,M,-22.1,M,1.0,0000*4B
$GNRMC,170126.00,A,2100.51225,N,10550.20669,E,12.15,0.0,081026,,,R*52
$GNGGA,170126.00,2100.51225,N,10550.20669,E,4,18,0.6,12.3,M,-22.1,M,1.0,0000*40
$GNRMC,170127.00,A,2100.51574,N,10550.20667,E,13.36,0.0,081026,,,R*5E
$GNGGA,170127.00,2100.51574,N,10550.20667,E,4,18,0.6,12.3,M,-22.1,M,1.0,0000*4C
$GNRMC,170128.00,A,2100.51963,N,10550.20672,E,14.50,0.0,081026,,,R*58
$GNGGA,170128.00,2100.51963,N,10550.20672,E,4,18,0.6,12.3,M,-22.1,M,1.0,0000*4D
$GNRMC,170129.00,A,2100.52367,N,10550.20667,E,14.58,0.0,081026,,,R*58
$GNGGA,170129.00,2100.52367,N,10550.20667,E,4,18,0.6,12.3,M,-22.1,M,1.0,0000*45
$GNRMC,170130.00,A,2100.52770,N,10550.20668,E,14.58,0.0,081026,,,R*5D
$GNGGA,170130.00,2100.52770,N,10550.20668,E,4,18,0.6,12.3,M,-22.1,M,1.0,0000*40
$GNRMC,170131.00,A,2100.53174,N,10550.20670,E,14.58,0.0,081026,,,R*56
$GNGGA,170131.00,2100.53174,N,10550.20670,E,4,18,0.6,12.2,M,-22.1,M,1.0,0000*4A
$GNRMC,170132.00,A,2100.53579,N,10550.20669,E,14.58,0.0,081026,,,R*54
$GNGGA,170132.00,2100.53579,N,10550.20669,E,4,18,0.6,12.4,M,-22.1,M,1.0,0000*4E
$GNRMC,170133.00,A,2100.53985,N,10550.20667,E,14.58,0.0,081026,,,R*54
$GNGGA,170133.00,2100.53985,N,10550.20667,E,4,18,0.6,12.4,M,-22.1,M,1.0,0000*4E
$GNRMC,170134.00,A,2100.54387,N,10550.20669,E,14.58,0.0,081026,,,R*52
$GNGGA,170134.00,2100.54387,N,10550.20669,E,4,18,0.6,12.4,M,-22.1,M,1.0,0000*48
$GNRMC,170135.00,A,2100.54791,N,10550.20669,E,14.58,0.0,081026,,,R*50
$GNGGA,170135.00,2100.54791,N,10550.20669,E,4,18,0.6,12.4,M,-22.1,M,1.0,0000*4A
$GNRMC,170136.00,A,2100.55198,N,10550.20669,E,14.58,0.0,081026,,,R*5D
$GNGGA,170136.00,2100.55198,N,10550.20669,E,4,18,0.6,12.3,M,-22.1,M,1.0,0000*40
$GNRMC,170137.00,A,2100.55602,N,10550.20668,E,14.58,0.0,081026,,,R*59
$GNGGA,170137.00,2100.55602,N,10550.20668,E,4,18,0.6,12.3,M,-22.1,M,1.0,0000*44
$GNRMC,170138.00,A,2100.56004,N,10550.20668,E,14.58,0.0,081026,,,R*55
$GNGGA,170138.00,2100.56004,N,10550.20668,E,4,18,0.6,12.3,M,-22.1,M,1.0,0000*48
$GNRMC,170139.00,A,2100.56408,N,10550.20667,E,14.58,0.0,081026,,,R*53
$GNGGA,170139.00,2100.56408,N,10550.20667,E,4,18,0.6,12.4,M,-22.1,M,1.0,0000*49
$GNRMC,170140.00,A,2100.56814,N,10550.20670,E,14.58,0.0,081026,,,R*5A
$GNGGA,170140.00,2100.56814,N,10550.20670,E,4,18,0.6,12.3,M,-22.1,M,1.0,0000*47
$GNRMC,170141.00,A,2100.57218,N,10550.20668,E,14.58,0.0,081026,,,R*55
$GNGGA,170141.00,2100.57218,N,10550.20668,E,4,18,0.6,12.3,M,-22.1,M,1.0,0000*48
$GNRMC,170142.00,A,2100.57623,N,10550.20669,E,14.58,0.0,081026,,,R*5B
$GNGGA,170142.00,2100.57623,N,10550.20669,E,4,18,0.6,12.4,M,-22.1,M,1.0,0000*41
$GNRMC,170143.00,A,2100.58025,N,10550.20669,E,14.58,0.0,081026,,,R*55
$GNGGA,170143.00,2100.58025,N,10550.20669,E,4,18,0.6,12.4,M,-22.1,M,1.0,0000*4F
$GNRMC,170144.00,A,2100.58429,N,10550.20671,E,14.58,0.0,081026,,,R*53
$GNGGA,170144.00,2100.58429,N,10550.20671,E,4,18,0.6,12.2,M,-22.1,M,1.0,0000*4F
$GNRMC,170145.00,A,2100.58835,N,10550.20669,E,14.58,0.0,081026,,,R*5A
$GNGGA,170145.00,2100.58835,N,10550.20669,E,4,18,0.6,12.4,M,-22.1,M,1.0,0000*40
$GNRMC,170146.00,A,2100.59240,N,10550.20672,E,14.58,0.0,081026,,,R*5A
$GNGGA,170146.00,2100.59240,N,10550.20672,E,4,18,0.6,12.2,M,-22.1,M,1.0,0000*46
$GNRMC,170147.00,A,2100.59642,N,10550.20668,E,14.58,0.0,081026,,,R*56
$GNGGA,170147.00,2100.59642,N,10550.20668,E,4,18,0.6,12.4,M,-22.1,M,1.0,0000*4C
$GNRMC,170148.00,A,2100.60046,N,10550.20668,E,14.58,0.0,081026,,,R*51
$GNGGA,170148.00,2100.60046,N,10550.20668,E,4,18,0.6,12.3,M,-22.1,M,1.0,0000*4C
$GNRMC,170149.00,A,2100.60451,N,10550.20669,E,14.58,0.0,081026,,,R*53
$GNGGA,170149.00,2100.60451,N,10550.20669,E,4,18,0.6,12.2,M,-22.1,M,1.0,0000*4F
$GNRMC,170150.00,A,2100.60855,N,10550.20668,E,14.58,0.0,081026,,,R*52
$GNGGA,170150.00,2100.60855,N,10550.20668,E,4,18,0.6,12.3,M,-22.1,M,1.0,0000*4F
$GNRMC,170151.00,A,2100.61260,N,10550.20669,E,14.58,0.0,081026,,,R*5F
$GNGGA,170151.00,2100.61260,N,10550.20669,E,4,18,0.6,12.3,M,-22.1,M,1.0,0000*42
$GNRMC,170152.00,A,2100.61666,N,10550.20669,E,14.58,0.0,081026,,,R*5E
$GNGGA,170152.00,2100.61666,N,10550.20669,E,4,18,0.6,12.3,M,-22.1,M,1.0,0000*43
$GNRMC,170153.00,A,2100.62069,N,10550.20669,E,14.58,0.0,081026,,,R*55
$GNGGA,170153.00,2100.62069,N,10550.20669,E,4,18,0.6,12.4,M,-22.1,M,1.0,0000*4F
$GNRMC,170154.00,A,2100.62472,N,10550.20669,E,14.58,0.0,081026,,,R*5C
$GNGGA,170154.00,2100.62472,N,10550.20669,E,4,18,0.6,12.3,M,-22.1,M,1.0,0000*41
$GNRMC,170155.00,A,2100.62879,N,10550.20670,E,14.58,0.0,081026,,,R*52
$GNGGA,170155.00,2100.62879,N,10550.20670,E,4,18,0.6,12.3,M,-22.1,M,1.0,0000*4F
$GNRMC,170156.00,A,2100.63281,N,10550.20667,E,14.58,0.0,081026,,,R*5B
$GNGGA,170156.00,2100.63281,N,10550.20667,E,4,18,0.6,12.2,M,-22.1,M,1.0,0000*47
$GNRMC,170157.00,A,2100.63684,N,10550.20669,E,14.58,0.0,081026,,,R*55
$GNGGA,170157.00,2100.63684,N,10550.20669,E,4,18,0.6,12.3,M,-22.1,M,1.0,0000*48
$GNRMC,170158.00,A,2100.64088,N,10550.20667,E,14.58,0.0,081026,,,R*59
$GNGGA,170158.00,2100.64088,N,10550.20667,E,4,18,0.6,12.3,M,-22.1,M,1.0,0000*44
$GNRMC,170159.00,A,2100.64496,N,10550.20669,E,14.58,0.0,081026,,,R*5D
$GNGGA,170159.00,2100.64496,N,10550.20669,E,4,18,0.6,12.3,M,-22.1,M,1.0,0000*40
$GNRMC,170200.00,A,2100.64899,N,10550.20669,E,14.58,0.0,081026,,,R*51
$GNGGA,170200.00,2100.64899,N,10550.20669,E,4,18,0.6,12.3,M,-22.1,M,1.0,0000*4C
